[Satellite]
VERSION=1.1
NAME=MOLNIYA 1-29
NICKNAME=MOLNIYA 1-29
TLE1=1 07780U 75036A   15049.62308587  .00001735  00000-0  29973-1 0  9998
TLE2=2 07780  61.8213 262.1291 7370445 260.4311  17.3439  2.00697451291952
